STARLINK-33559          
1 62107U 24220V   26068.45072851  .00024827  00000+0  90821-3 0  9995
2 62107  42.9965 206.9707 0001593 212.7647 147.3106 15.27596264 73156
TRANSPORTER-12 OBJECT BA
1 62657U 25009BA  26068.70118713  .00011330  00000+0  42733-3 0  9991
2 62657  97.3985 151.1390 0000403 234.6623 125.4579 15.27214003 63739
